CCSDS_OMM_VERS,COMMENT,CREATION_DATE,ORIGINATOR,OBJECT_NAME,OBJECT_ID,CENTER_NAME,REF_FRAME,TIME_SYSTEM,MEAN_ELEMENT_THEORY,EPOCH,MEAN_MOTION,ECCENTRICITY,INCLINATION,RA_OF_ASC_NODE,ARG_OF_PERICENTER,MEAN_ANOMALY,EPHEMERIS_TYPE,CLASSIFICATION_TYPE,NORAD_CAT_ID,ELEMENT_SET_NO,REV_AT_EPOCH,BSTAR,MEAN_MOTION_DOT,MEAN_MOTION_DDOT,SEMIMAJOR_AXIS,PERIOD,APOAPSIS,PERIAPSIS,OBJECT_TYPE,RCS_SIZE,COUNTRY_CODE,LAUNCH_DATE,SITE,DECAY_DATE,FILE,GP_ID,TLE_LINE0,TLE_LINE1,TLE_LINE2,norad_id
3.0,GENERATED VIA SPACE-TRACK.ORG API,2026-06-07T03:17:11,18 SPCS,QZS-2,2017-028A,EARTH,TEME,UTC,SGP4,2026-06-06 12:59:41.129664+00:00,1.00286802,0.07605310,39.4434,243.3115,269.1455,78.6569,0,U,42738,999,751,0.00000000000000,-0.00000152,0.0000000000000,42160.523,1435.882,38988.826,32575.949,PAYLOAD,LARGE,JPN,2017-06-01,TNSTA,,5234182,327689912,0 QZS-2,1 42738U 17028A   26157.54144826 -.00000152  00000-0  00000-0 0  9996,2 42738  39.4434 243.3115 0760531 269.1455  78.6569  1.00286802  7517,42738
3.0,GENERATED VIA SPACE-TRACK.ORG API,2026-06-07T19:26:49,18 SPCS,QZS-2,2017-028A,EARTH,TEME,UTC,SGP4,2026-06-07 06:58:38.717760+00:00,1.00286598,0.07605970,39.4423,243.3005,269.1530,349.1736,0,U,42738,999,752,0.00000000000000,-0.00000151,0.0000000000000,42160.580,1435.885,38989.166,32575.724,PAYLOAD,LARGE,JPN,2017-06-01,TNSTA,,5234986,327815155,0 QZS-2,1 42738U 17028A   26158.29072590 -.00000151  00000-0  00000+0 0  9995,2 42738  39.4423 243.3005 0760597 269.1530 349.1736  1.00286598  7524,42738
3.0,GENERATED VIA SPACE-TRACK.ORG API,2026-06-08T10:56:51,18 SPCS,QZS-2,2017-028A,EARTH,TEME,UTC,SGP4,2026-06-07 13:48:31.783104+00:00,1.00286521,0.07605855,39.4419,243.2963,269.1564,91.9396,0,U,42738,999,753,0.00000000000000,-0.00000151,0.0000000000000,42160.601,1435.886,38989.141,32575.792,PAYLOAD,LARGE,JPN,2017-06-01,TNSTA,,5237053,328027020,0 QZS-2,1 42738U 17028A   26158.57536786 -.00000151  00000-0  00000-0 0  9999,2 42738  39.4419 243.2963 0760585 269.1564  91.9396  1.00286521  7536,42738
3.0,GENERATED VIA SPACE-TRACK.ORG API,2026-06-09T11:36:59,18 SPCS,QZS-2,2017-028A,EARTH,TEME,UTC,SGP4,2026-06-08 13:34:50.003328+00:00,1.00286250,0.07604931,39.4403,243.2817,269.1681,89.5416,0,U,42738,999,754,0.00000000000000,-0.00000150,0.0000000000000,42160.677,1435.890,38988.833,32576.252,PAYLOAD,LARGE,JPN,2017-06-01,TNSTA,,5239225,328297804,0 QZS-2,1 42738U 17028A   26159.56585652 -.00000150  00000-0  00000-0 0  9994,2 42738  39.4403 243.2817 0760493 269.1681  89.5416  1.00286250  7541,42738
3.0,GENERATED VIA SPACE-TRACK.ORG API,2026-06-09T19:23:37,18 SPCS,QZS-2,2017-028A,EARTH,TEME,UTC,SGP4,2026-06-09 12:56:43.810944+00:00,1.00285994,0.07605811,39.4388,243.2674,269.1776,81.0235,0,U,42738,999,754,0.00000000000000,-0.00000147,0.0000000000000,42160.749,1435.893,38989.281,32575.947,PAYLOAD,LARGE,JPN,2017-06-01,TNSTA,,5240046,328409145,0 QZS-2,1 42738U 17028A   26160.53939596 -.00000147  00000-0  00000-0 0  9999,2 42738  39.4388 243.2674 0760581 269.1776  81.0235  1.00285994  7547,42738
3.0,GENERATED VIA SPACE-TRACK.ORG API,2026-06-14T23:26:41,18 SPCS,QZS-2,2017-028A,EARTH,TEME,UTC,SGP4,2026-06-14 12:35:02.340960+00:00,1.00284682,0.07604010,39.4315,243.1943,269.2280,80.7522,0,U,42738,999,759,0.00000000000000,-0.00000137,0.0000000000000,42161.117,1435.912,38988.917,32577.046,PAYLOAD,LARGE,JPN,2017-06-01,TNSTA,,5246970,329463038,0 QZS-2,1 42738U 17028A   26165.52433265 -.00000137  00000-0  00000+0 0  9993,2 42738  39.4315 243.1943 0760401 269.2280  80.7522  1.00284682  7590,42738
3.0,GENERATED VIA SPACE-TRACK.ORG API,2026-06-15T02:25:05,18 SPCS,QZS-2,2017-028A,EARTH,TEME,UTC,SGP4,2026-06-14 12:35:02.341824+00:00,1.00284682,0.07604012,39.4315,243.1943,269.2281,80.7522,0,U,42738,999,759,0.00000000000000,-0.00000137,0.0000000000000,42161.117,1435.912,38988.918,32577.045,PAYLOAD,LARGE,JPN,2017-06-01,TNSTA,,5247531,329531206,0 QZS-2,1 42738U 17028A   26165.52433266 -.00000137  00000-0  00000-0 0  9995,2 42738  39.4315 243.1943 0760401 269.2281  80.7522  1.00284682  7591,42738
3.0,GENERATED VIA SPACE-TRACK.ORG API,2026-06-15T18:47:25,18 SPCS,QZS-2,2017-028A,EARTH,TEME,UTC,SGP4,2026-06-15 12:28:38.731008+00:00,1.00284423,0.07605138,39.4302,243.1796,269.2356,80.1810,0,U,42738,999,760,0.00000000000000,-0.00000144,0.0000000000000,42161.189,1435.916,38989.471,32576.638,PAYLOAD,LARGE,JPN,2017-06-01,TNSTA,,5249107,329747841,0 QZS-2,1 42738U 17028A   26166.51989272 -.00000144  00000-0  00000-0 0  9996,2 42738  39.4302 243.1796 0760514 269.2356  80.1810  1.00284423  7600,42738
3.0,GENERATED VIA SPACE-TRACK.ORG API,2026-06-17T22:56:53,18 SPCS,QZS-2,2017-028A,EARTH,TEME,UTC,SGP4,2026-06-17 12:26:38.819904+00:00,1.00283788,0.07593330,39.4268,243.1501,269.2718,81.7354,0,U,42738,999,762,0.00000000000000,-0.00000166,0.0000000000000,42161.367,1435.925,38984.684,32581.781,PAYLOAD,LARGE,JPN,2017-06-01,TNSTA,,5253053,330264703,0 QZS-2,1 42738U 17028A   26168.51850486 -.00000166  00000-0  00000+0 0  9995,2 42738  39.4268 243.1501 0759333 269.2718  81.7354  1.00283788  7629,42738
3.0,GENERATED VIA SPACE-TRACK.ORG API,2026-06-18T02:44:48,18 SPCS,QZS-2,2017-028A,EARTH,TEME,UTC,SGP4,2026-06-17 12:26:38.820768+00:00,1.00283788,0.07593332,39.4268,243.1501,269.2718,81.7354,0,U,42738,999,762,0.00000000000000,-0.00000166,0.0000000000000,42161.368,1435.925,38984.685,32581.780,PAYLOAD,LARGE,JPN,2017-06-01,TNSTA,,5253468,330318789,0 QZS-2,1 42738U 17028A   26168.51850487 -.00000166  00000-0  00000-0 0  9997,2 42738  39.4268 243.1501 0759333 269.2718  81.7354  1.00283788  7629,42738
3.0,GENERATED VIA SPACE-TRACK.ORG API,2026-06-18T17:45:15,18 SPCS,QZS-2,2017-028A,EARTH,TEME,UTC,SGP4,2026-06-18 12:27:38.858400+00:00,1.00283521,0.07592463,39.4254,243.1353,269.2826,83.0137,0,U,42738,999,764,0.00000000000000,-0.00000177,0.0000000000000,42161.442,1435.929,38984.399,32582.215,PAYLOAD,LARGE,JPN,2017-06-01,TNSTA,,5253513,330388221,0 QZS-2,1 42738U 17028A   26169.51919975 -.00000177  00000-0  00000-0 0  9998,2 42738  39.4254 243.1353 0759246 269.2826  83.0137  1.00283521  7643,42738
3.0,GENERATED VIA SPACE-TRACK.ORG API,2026-06-19T17:59:21,18 SPCS,QZS-2,2017-028A,EARTH,TEME,UTC,SGP4,2026-06-19 11:28:51.813408+00:00,1.00283355,0.07588370,39.4240,243.1214,269.2922,69.3071,0,U,42738,999,764,0.00000000000000,-0.00000184,0.0000000000000,42161.489,1435.931,38982.723,32583.984,PAYLOAD,LARGE,JPN,2017-06-01,TNSTA,,5255921,330722700,0 QZS-2,1 42738U 17028A   26170.47837747 -.00000184  00000-0  00000-0 0  9999,2 42738  39.4240 243.1214 0758837 269.2922  69.3071  1.00283355  7645,42738
3.0,GENERATED VIA SPACE-TRACK.ORG API,2026-06-23T03:40:42,18 SPCS,QZS-2,2017-028A,EARTH,TEME,UTC,SGP4,2026-06-21 12:15:38.803392+00:00,1.00282746,0.07589766,39.4210,243.0913,269.3162,83.0804,0,U,42738,999,767,0.00000000000000,-0.00000184,0.0000000000000,42161.660,1435.940,38983.496,32583.553,PAYLOAD,LARGE,JPN,2017-06-01,TNSTA,,5257616,330961271,0 QZS-2,1 42738U 17028A   26172.51086578 -.00000184  00000-0  00000-0 0  9994,2 42738  39.4210 243.0913 0758977 269.3162  83.0804  1.00282746  7672,42738
3.0,GENERATED VIA SPACE-TRACK.ORG API,2026-06-24T02:28:56,18 SPCS,QZS-2,2017-028A,EARTH,TEME,UTC,SGP4,2026-06-23 11:46:24.276000+00:00,1.00282240,0.07593906,39.4179,243.0621,269.3295,77.7964,0,U,42738,999,768,0.00000000000000,-0.00000168,0.0000000000000,42161.801,1435.947,38985.394,32581.939,PAYLOAD,LARGE,JPN,2017-06-01,TNSTA,,5257684,331030463,0 QZS-2,1 42738U 17028A   26174.49055875 -.00000168  00000-0  00000-0 0  9991,2 42738  39.4179 243.0621 0759391 269.3295  77.7964  1.00282240  7687,42738
3.0,GENERATED VIA SPACE-TRACK.ORG API,2026-05-16T10:38:26,18 SPCS,BEIDOU 3M12,2018-067B,EARTH,TEME,UTC,SGP4,2026-05-14 18:03:44.190720+00:00,1.86227418,0.00044291,54.1758,182.1382,17.6934,342.4159,0,U,43603,999,5252,0.00000000000000,0.00000100,0.0000000000000,27906.546,773.248,21540.772,21516.051,PAYLOAD,LARGE,PRC,2018-08-24,XSC,,5196540,323439169,0 BEIDOU 3M12,1 43603U 18067B   26134.75259480  .00000100  00000-0  00000-0 0  9995,2 43603  54.1758 182.1382 0004429  17.6934 342.4159  1.86227418 52523,43603
3.0,GENERATED VIA SPACE-TRACK.ORG API,2026-05-18T14:57:15,18 SPCS,BEIDOU 3M12,2018-067B,EARTH,TEME,UTC,SGP4,2026-05-18 12:16:16.529088+00:00,1.86227344,0.00044230,54.1756,182.0106,17.0296,343.0701,0,U,43603,999,5259,0.00000000000000,0.00000067,0.0000000000000,27906.554,773.248,21540.762,21516.076,PAYLOAD,LARGE,PRC,2018-08-24,XSC,,5201679,323715219,0 BEIDOU 3M12,1 43603U 18067B   26138.51130242  .00000067  00000-0  00000+0 0  9998,2 43603  54.1756 182.0106 0004423  17.0296 343.0701  1.86227344 52598,43603
3.0,GENERATED VIA SPACE-TRACK.ORG API,2026-05-19T02:42:52,18 SPCS,BEIDOU 3M12,2018-067B,EARTH,TEME,UTC,SGP4,2026-05-18 12:16:16.529952+00:00,1.86227344,0.00044232,54.1756,182.0106,17.0296,343.0701,0,U,43603,999,5259,0.00000000000000,0.00000067,0.0000000000000,27906.554,773.248,21540.762,21516.075,PAYLOAD,LARGE,PRC,2018-08-24,XSC,,5203002,323761245,0 BEIDOU 3M12,1 43603U 18067B   26138.51130243  .00000067  00000-0  00000-0 0  9990,2 43603  54.1756 182.0106 0004423  17.0296 343.0701  1.86227344 52598,43603
3.0,GENERATED VIA SPACE-TRACK.ORG API,2026-05-19T10:22:28,18 SPCS,BEIDOU 3M12,2018-067B,EARTH,TEME,UTC,SGP4,2026-05-19 01:09:29.499840+00:00,1.86227309,0.00043968,54.1757,181.9925,17.0226,343.0733,0,U,43603,999,5260,0.00000000000000,0.00000058,0.0000000000000,27906.557,773.249,21540.692,21516.152,PAYLOAD,LARGE,PRC,2018-08-24,XSC,,5203799,323813494,0 BEIDOU 3M12,1 43603U 18067B   26139.04825810  .00000058  00000-0  00000-0 0  9990,2 43603  54.1757 181.9925 0004397  17.0226 343.0733  1.86227309 52607,43603
